#aV2016  2  2  0  0  0.00000000     288 DD+AD WGS84 FIT  NGA
## 1882 172800.00000000   300.00000000 57420 0.0000000000000
+   30     1  2  3  5  6  7  8  9 10 11 12 13 14 15 16 17 18
+         19 20 21 22 23 24 25 26 27 28 29 30 31  0  0  0  0
+          0  0  0  0  0  0  0  0  0  0  0  0  0  0  0  0  0
+          0  0  0  0  0  0  0  0  0  0  0  0  0  0  0  0  0
+          0  0  0  0  0  0  0  0  0  0  0  0  0  0  0  0  0
++         2  2  2  2  2  2  2  2  2  2  2  2  2  2  2  2  2
++         2  2  2  2  2  2  2  2  2  2  2  2  2  0  0  0  0
++         0  0  0  0  0  0  0  0  0  0  0  0  0  0  0  0  0
++         0  0  0  0  0  0  0  0  0  0  0  0  0  0  0  0  0
++         0  0  0  0  0  0  0  0  0  0  0  0  0  0  0  0  0
%c cc cc ccc ccc cccc cccc cccc cccc ccccc ccccc ccccc ccccc
%c cc cc ccc ccc cccc cccc cccc cccc ccccc ccccc ccccc ccccc
%f  0.0000000  0.000000000  0.00000000000  0.000000000000000
%f  0.0000000  0.000000000  0.00000000000  0.000000000000000
%i    0    0    0    0      0      0      0      0         0
%i    0    0    0    0      0      0      0      0         0
/*      NGA, ST. LOUIS,MO.                                  
/*   EPHEMERIS COMPUTED FROM 2 DAYS OF DATA                 
/*   EPOCHA v2.4 SMOOTHER                                   
/*   G1762 IERS2010 SATAF SATAPC                            
*  2016  2  2 14 50  0.00000000
P  1 -13392.993161  22536.360835  -3536.550067     10.697124                    
V  1  -4918.853910   1892.066037  31544.380009      0.009860                    
P  2  19218.260135  -8409.284045 -15623.186276    599.498601                    
V  2  -9292.005671  18821.365683 -21423.980338      0.001108                    
P  3 -10630.725927  13304.569133 -20388.257581    -19.563590                    
V  3 -25656.621987  -3571.346412  11033.711628     -0.048416                    
P  5  25492.930079  -2904.988872   7179.614929   -149.719597                    
V  5   8877.504970   3755.667648 -29516.979109      0.034791                    
P  6  14313.728412   5777.864616 -21605.551572    139.122101                    
V  6 -15672.846618  22530.898097  -4364.234903      0.060945                    
P  7   -821.331902  20387.802922  16917.103814    471.295965                    
V  7 -14364.702289  15930.940948 -20430.344827     -0.015609                    
P  8 -10221.347082  12793.365228  20965.996957    -22.360486                    
V  8 -11730.159481 -23764.469238   8818.687707     -0.014053                    
P  9   7302.294325  24972.481120  -5332.959824     62.585739                    
V  9  -5458.675966  -4927.879475 -30668.656508      0.077556                    
P 10 -20581.300530 -10968.701673  12765.793341     47.163564                    
V 10  16326.031674   -722.758059  25663.680235     -0.027915                    
P 11 -10653.182292  23596.451982   5241.809843   -630.337197                    
V 11  -2736.081392  -8407.704869  29290.445196     -0.019106                    
P 12  14735.301129 -10640.653167 -19400.410027    365.305044                    
V 12  23966.674301   4642.224269  15959.973135      0.026637                    
P 13  14475.934469  -3645.838828  21828.885265   -182.636282                    
V 13   8443.833662  26712.793031  -1218.784662     -0.025428                    
P 14 -14555.634275 -19797.355542 -10021.271733      5.459752                    
V 14  -2223.120724 -13057.876174  28176.255087     -0.022702                    
P 15   7567.346053 -16432.550041  19215.704851   -295.266949                    
V 15  13070.099320  21238.923077  13277.808277     -0.018386                    
P 16 -25798.742358    272.753067   7030.329023    -43.126569                    
V 16  -8547.602934  -2950.960016 -30502.348299      0.031785                    
P 17  14550.422659  20368.959867  -8844.320427   -200.020375                    
V 17   2351.111953  11564.518825  29224.390534     -0.006584                    
P 18  -9654.153407 -15634.155111  19782.228421    479.385611                    
V 18  24103.325971    397.670299  12133.422522      0.039718                    
P 19  15578.539058  16388.322273 -13839.748129   -524.712957                    
V 19   3592.287960  17074.562380  25077.655184     -0.001544                    
P 20  13726.574834 -13431.289556  18211.991530    390.042381                    
V 20  23508.753192   2442.510988 -15721.433011      0.026453                    
P 21  -4017.681331 -18819.638143  18923.554538   -508.440427                    
V 21  14275.684198 -17758.953687 -15524.644301     -0.019298                    
P 22 -26600.542961  -1787.619552   -164.657302    403.069624                    
V 22   -195.791781  -3881.246977  30776.687715     -0.054671                    
P 23  -2186.503121  21472.734190 -15013.858300   -158.061178                    
V 23 -10486.487079 -16753.399287 -22609.906461     -0.019013                    
P 24  14773.475570 -21943.496572   -368.761977    -11.711786                    
V 24   2952.918638   1526.834073  31656.232349     -0.006038                    
P 25    176.466588 -14914.842573 -22084.649242   -110.063615                    
V 25  27594.337935   2761.283659  -1470.203852     -0.065700                    
P 26 -25929.329261  -4791.613620  -3354.821395   -237.677195                    
V 26   4500.274986  -2351.980684 -31346.800345     -0.160814                    
P 27 -15523.231601   1470.517246  21499.351100     59.073375                    
V 27 -10940.183188 -25012.863100  -6038.449498      0.035371                    
P 28  19169.698472  12694.104156  13975.766828    499.643547                    
V 28 -16583.415670  -1621.447159  25332.451997      0.026823                    
P 29  -3842.609882 -25036.193146  -8042.407976    653.345972                    
V 29   5684.550043   8748.550830 -29841.633365      0.009129                    
P 30   8194.232028  13691.649666  21215.899530     91.773249                    
V 30 -17748.792233  20344.598115  -6350.991872      0.044704                    
P 31 -15470.398192  -3618.220805 -21230.180892    284.386881                    
V 31  16197.810444 -21756.877320  -7697.402223     -0.016158                    
EOF
